0 CZ-4 DEB
1 26432U 99057KD  13280.10984855  .00001568  00000-0  51192-3 0    05
2 26432 098.6163 240.3575 0151138 159.4076 201.3289 14.33712722700294
0 CZ-4 DEB
1 26432U 99057KD  13282.13375719  .00002190  00000-0  70861-3 0    10
2 26432 098.6164 242.3739 0151280 153.4341 207.4698 14.33726452700584
0 CZ-4 DEB
1 26432U 99057KD  13286.73982188  .00002766  00000-0  89028-3 0    30
2 26432 098.6160 246.9630 0151428 139.8348 221.4146 14.33744373701249
0 CZ-4 DEB
1 26432U 99057KD  13288.83346194  .00003129  00000-0  10047-2 0    43
2 26432 098.6165 249.0486 0151615 133.6414 227.7460 14.33759302701540
0 CZ-4 DEB
1 26432U 99057KD  13291.41558437  .00003427  00000-0  10983-2 0    57
2 26432 098.6175 251.6210 0151751 126.0576 235.4776 14.33774149701914
0 CZ-4 DEB
1 26432U 99057KD  13293.85810302  .00003879  00000-0  12402-2 0    69
2 26432 098.6181 254.0548 0151880 118.8691 242.7831 14.33786734702267
